HERMES-3                
1 63835U 25052BR  26068.93751242  .00020316  00000+0  69958-3 0  9995
2 63835  97.3987 324.6131 0007993 112.9583 247.2502 15.30039785 54863
STARLINK-35337          
1 65831U 25221J   26068.35940693  .00023252  00000+0  79446-3 0  9992
2 65831  53.1594  89.8199 0001001  89.3245 270.7870 15.30210838 26032
