[{"OBJECT_NAME":"HERMES-3","OBJECT_ID":"2025-052BR","EPOCH":"2026-03-09T22:30:01.073952","MEAN_MOTION":15.30039786,"ECCENTRICITY":0.00079928,"INCLINATION":97.3987,"RA_OF_ASC_NODE":324.6131,"ARG_OF_PERICENTER":112.9583,"MEAN_ANOMALY":247.2502,"EPHEMERIS_TYPE":0,"CLASSIFICATION_TYPE":"U","NORAD_CAT_ID":63835,"ELEMENT_SET_NO":999,"REV_AT_EPOCH":5486,"BSTAR":0.0006995793,"MEAN_MOTION_DOT":0.00020316,"MEAN_MOTION_DDOT":0},{"OBJECT_NAME":"STARLINK-35337","OBJECT_ID":"2025-221J","EPOCH":"2026-03-09T08:37:32.758752","MEAN_MOTION":15.30210838,"ECCENTRICITY":0.00010014,"INCLINATION":53.1594,"RA_OF_ASC_NODE":89.8199,"ARG_OF_PERICENTER":89.3245,"MEAN_ANOMALY":270.787,"EPHEMERIS_TYPE":0,"CLASSIFICATION_TYPE":"U","NORAD_CAT_ID":65831,"ELEMENT_SET_NO":999,"REV_AT_EPOCH":2603,"BSTAR":0.00079446404,"MEAN_MOTION_DOT":0.00023252,"MEAN_MOTION_DDOT":0}]
